{
    "links": {
        "self": "http://www.neowsapp.com/rest/v1/neo/3691158?api_key=iIulBulltgU6a56xZRHN4H3l9WmuAYTsLGpBGhQ2"
    },
    "id": "3691158",
    "neo_reference_id": "3691158",
    "name": "(2014 SV261)",
    "designation": "2014 SV261",
    "nasa_jpl_url": "http://ssd.jpl.nasa.gov/sbdb.cgi?sstr=3691158",
    "absolute_magnitude_h": 23.5,
    "estimated_diameter": {
        "kilometers": {
            "estimated_diameter_min": 0.0530340723,
            "estimated_diameter_max": 0.1185877909
        },
        "meters": {
            "estimated_diameter_min": 53.0340723319,
            "estimated_diameter_max": 118.5877908577
        },
        "miles": {
            "estimated_diameter_min": 0.0329538346,
            "estimated_diameter_max": 0.0736870142
        },
        "feet": {
            "estimated_diameter_min": 173.9963058693,
            "estimated_diameter_max": 389.0675677576
        }
    },
    "is_potentially_hazardous_asteroid": false,
    "close_approach_data": [
        {
            "close_approach_date": "2014-04-08",
            "close_approach_date_full": "2014-Apr-08 05:01",
            "epoch_date_close_approach": 1396933260000,
            "relative_velocity": {
                "kilometers_per_second": "15.8341086266",
                "kilometers_per_hour": "57002.7910555886",
                "miles_per_hour": "35419.3175867351"
            },
            "miss_distance": {
                "astronomical": "0.3122579718",
                "lunar": "121.4683510302",
                "kilometers": "46713127.471800066",
                "miles": "29026191.4485942708"
            },
            "orbiting_body": "Earth"
        },
        {
            "close_approach_date": "2014-09-27",
            "close_approach_date_full": "2014-Sep-27 16:56",
            "epoch_date_close_approach": 1411836960000,
            "relative_velocity": {
                "kilometers_per_second": "14.7459876861",
                "kilometers_per_hour": "53085.5556700712",
                "miles_per_hour": "32985.2998551062"
            },
            "miss_distance": {
                "astronomical": "0.0956326752",
                "lunar": "37.2011106528",
                "kilometers": "14306444.512321824",
                "miles": "8889612.4031522112"
            },
            "orbiting_body": "Earth"
        }
    ],
    "orbital_data": {
        "orbit_id": "10",
        "orbit_determination_date": "2017-04-06 08:38:22",
        "first_observation_date": "2014-09-26",
        "last_observation_date": "2014-10-02",
        "data_arc_in_days": 6,
        "observations_used": 82,
        "orbit_uncertainty": "8",
        "minimum_orbit_intersection": ".0954633",
        "jupiter_tisserand_invariant": "5.259",
        "epoch_osculation": "2456928.5",
        "eccentricity": ".1057486873335425",
        "semi_major_axis": "1.175397550054238",
        "inclination": "28.30856035858702",
        "ascending_node_longitude": "186.3376010129468",
        "orbital_period": "465.4527479055257",
        "perihelion_distance": "1.051100802040941",
        "perihelion_argument": "122.7892222687728",
        "aphelion_distance": "1.299694298067536",
        "perihelion_time": "2456869.715675571563",
        "mean_anomaly": "45.46617651193394",
        "mean_motion": ".7734404869666175",
        "equinox": "J2000",
        "orbit_class": {
            "orbit_class_type": "AMO",
            "orbit_class_description": "Near-Earth asteroid orbits similar to that of 1221 Amor",
            "orbit_class_range": "1.017 AU < q (perihelion) < 1.3 AU"
        }
    },
    "is_sentry_object": false
}